YAOGAN-36 04C           
1 54750U 22171E   26068.78871400  .00016196  00000+0  54592-3 0  9991
2 54750  34.9797  96.6578 0006685 275.3761  84.6192 15.29852307180246
STARLINK-36458          
1 67343U 26003K   26068.48126518  .00036087  00000+0  13148-2 0  9993
2 67343  42.9974 228.0961 0001430 230.7461 129.3264 15.27571621  8797
